{
  "66458": {
    "noradId": "66458",
    "tle": [
      "1 66458C 25262C   25343.11159722  .00001308  00000+0  31205-4 0  3430",
      "2 66458  43.0003  92.4858 0001328 267.0852 269.0201 15.40709153    17"
    ]
  },
  "66459": {
    "noradId": "66459",
    "tle": [
      "1 66459C 25262D   25343.10743056 -.00010764  00000+0 -25688-3 0  3434",
      "2 66459  43.0004  92.4488 0001408 285.2778 252.6295 15.40703917    19"
    ]
  },
  "66460": {
    "noradId": "66460",
    "tle": [
      "1 66460C 25262E   25343.10951389 -.00588090  00000+0 -13951-1 0  3436",
      "2 66460  43.0004  92.4084 0001340 275.4512 285.6764 15.41458048    15"
    ]
  },
  "66461": {
    "noradId": "66461",
    "tle": [
      "1 66461C 25262F   25343.10604167 -.01808500  00000+0 -41894-1 0  3435",
      "2 66461  43.0004  92.4044 0001168 265.5582 286.0898 15.43396346    14"
    ]
  },
  "66462": {
    "noradId": "66462",
    "tle": [
      "1 66462C 25262G   25343.10465278 -.02269600  00000+0 -50475-1 0  3432",
      "2 66462  43.0004  92.3910 0000812 268.0956 284.2464 15.45082580    17"
    ]
  },
  "66463": {
    "noradId": "66463",
    "tle": [
      "1 66463C 25262H   25343.10534722 -.02274200  00000+0 -46199-1 0  3434",
      "2 66463  43.0006  92.3554 0000736 273.7517 295.3083 15.47750560    17"
    ]
  },
  "66464": {
    "noradId": "66464",
    "tle": [
      "1 66464C 25262J   25343.10881944 -.02273500  00000+0 -48361-1 0  3431",
      "2 66464  43.0005  92.3494 0000885 276.1960 306.4992 15.46400711    16"
    ]
  },
  "66465": {
    "noradId": "66465",
    "tle": [
      "1 66465C 25262K   25343.10951389 -.02280800  00000+0 -42267-1 0  3433",
      "2 66465  43.0005  92.3136 0001058 263.2703 336.2357 15.50408188    12"
    ]
  },
  "66466": {
    "noradId": "66466",
    "tle": [
      "1 66466C 25262L   25343.10881944 -.02090200  00000+0 -37041-1 0  3430",
      "2 66466  43.0005  92.3123 0001198 246.3957 350.9723 15.51485085    19"
    ]
  },
  "66467": {
    "noradId": "66467",
    "tle": [
      "1 66467C 25262M   25343.11090278 -.02272600  00000+0 -44129-1 0  3435",
      "2 66467  43.0006  92.3127 0001060 269.6519 334.7216 15.49057061    18"
    ]
  },
  "66468": {
    "noradId": "66468",
    "tle": [
      "1 66468C 25262N   25343.11159722 -.01023600  00000+0 -17605-1 0  3438",
      "2 66468  43.0005  92.2923 0001340 252.5596   2.2358 15.51252843    10"
    ]
  },
  "66469": {
    "noradId": "66469",
    "tle": [
      "1 66469C 25262P   25343.10673611 -.00006399  00000+0 -10872-3 0  3432",
      "2 66469  43.0005  92.3048 0001508 269.5164 324.1038 15.50582622    16"
    ]
  },
  "66470": {
    "noradId": "66470",
    "tle": [
      "1 66470C 25262Q   25343.10604167 -.00097829  00000+0 -16635-2 0  3434",
      "2 66470  43.0005  92.3195 0001396 268.6861 317.1931 15.50650146    11"
    ]
  },
  "66471": {
    "noradId": "66471",
    "tle": [
      "1 66471C 25262R   25343.10604167  .00001166  00000+0  19817-4 0  3439",
      "2 66471  43.0005  92.3142 0001420 272.9077 314.9255 15.50570756    11"
    ]
  },
  "66472": {
    "noradId": "66472",
    "tle": [
      "1 66472C 25262S   25343.10673611 -.00008865  00000+0 -15062-3 0  3432",
      "2 66472  43.0005  92.3005 0001529 271.1856 324.3532 15.50583713    16"
    ]
  },
  "66473": {
    "noradId": "66473",
    "tle": [
      "1 66473C 25262T   25343.11298611 -.00012218  00000+0 -20759-3 0  3433",
      "2 66473  43.0006  92.2590 0001515 267.3233   5.0618 15.50585934    12"
    ]
  },
  "66474": {
    "noradId": "66474",
    "tle": [
      "1 66474C 25262U   25343.10812500 -.00005040  00000+0 -85624-4 0  3430",
      "2 66474  43.0005  92.2822 0001459 264.2400 342.8957 15.50580495    14"
    ]
  },
  "66475": {
    "noradId": "66475",
    "tle": [
      "1 66475C 25262V   25343.11020833 -.00011333  00000+0 -19256-3 0  3431",
      "2 66475  43.0006  92.2661 0001514 269.9491 350.7455 15.50585545    13"
    ]
  },
  "66476": {
    "noradId": "66476",
    "tle": [
      "1 66476C 25262W   25343.10673611  .00002995  00000+0  50881-4 0  3431",
      "2 66476  43.0005  92.2811 0001509 268.8808 334.3367 15.50570037    14"
    ]
  },
  "66477": {
    "noradId": "66477",
    "tle": [
      "1 66477C 25262X   25343.10743056 -.00033070  00000+0 -56174-3 0  3433",
      "2 66477  43.0005  92.2668 0001236 246.0950   4.7934 15.50614940    18"
    ]
  },
  "66478": {
    "noradId": "66478",
    "tle": [
      "1 66478C 25262Y   25343.10673611 -.00000643  00000+0 -10930-4 0  3434",
      "2 66478  43.0005  92.2656 0001548 272.9394 336.0220 15.50575627    19"
    ]
  },
  "66479": {
    "noradId": "66479",
    "tle": [
      "1 66479C 25262Z   25343.10812500  .00007922  00000+0  13470-3 0  3433",
      "2 66479  43.0005  92.2669 0001484 266.5299 346.4288 15.50546785    18"
    ]
  },
  "66480": {
    "noradId": "66480",
    "tle": [
      "1 66480C 25262AA  25343.10604167 -.00011406  00000+0 -19379-3 0  3431",
      "2 66480  43.0005  92.2645 0001510 271.6436 335.3522 15.50585881    12"
    ]
  },
  "66481": {
    "noradId": "66481",
    "tle": [
      "1 66481C 25262AB  25343.10812500 -.00010002  00000+0 -16995-3 0  3436",
      "2 66481  43.0006  92.2472 0001550 267.9415 352.6159 15.50582864    17"
    ]
  },
  "66482": {
    "noradId": "66482",
    "tle": [
      "1 66482C 25262AC  25343.10743056 -.00008615  00000+0 -14638-3 0  3435",
      "2 66482  43.0005  92.2465 0001459 266.0252 352.5672 15.50582328    10"
    ]
  },
  "66483": {
    "noradId": "66483",
    "tle": [
      "1 66483C 25262AD  25343.11020833 -.00010946  00000+0 -18599-3 0  3438",
      "2 66483  43.0007  92.2246 0001572 271.8079   4.2275 15.50583503    13"
    ]
  },
  "66484": {
    "noradId": "66484",
    "tle": [
      "1 66484C 25262AE  25343.10673611 -.00011595  00000+0 -19701-3 0  3433",
      "2 66484  43.0005  92.2414 0001539 270.3072 348.2346 15.50585524    14"
    ]
  },
  "66485": {
    "noradId": "66485",
    "tle": [
      "1 66485C 25263A   25343.10673611 -.02282400  00000+0 -43367-1 0  3435",
      "2 66485  43.0003 146.4212 0001032 276.6500 220.8942 15.49692522    16"
    ]
  },
  "66486": {
    "noradId": "66486",
    "tle": [
      "1 66486C 25263B   25343.11020833 -.00036344  00000+0 -61746-3 0  3434",
      "2 66486  43.0004 146.3946 0001569 275.1845 244.0779 15.50612871    19"
    ]
  },
  "66487": {
    "noradId": "66487",
    "tle": [
      "1 66487C 25263C   25343.09423611 -.00041975  00000+0 -71316-3 0  3433",
      "2 66487  43.0003 146.4841 0001529 272.3767 159.5400 15.50617156    14"
    ]
  },
  "66488": {
    "noradId": "66488",
    "tle": [
      "1 66488C 25263D   25343.11020833 -.00029497  00000+0 -50114-3 0  3434",
      "2 66488  43.0003 146.3854 0001492 273.6852 249.4173 15.50605540    16"
    ]
  },
  "66489": {
    "noradId": "66489",
    "tle": [
      "1 66489C 25263E   25343.09284722 -.00014826  00000+0 -25189-3 0  3435",
      "2 66489  43.0003 146.4819 0001657 273.6291 154.3688 15.50590013    12"
    ]
  },
  "66490": {
    "noradId": "66490",
    "tle": [
      "1 66490C 25263F   25343.09354167 -.00046818  00000+0 -79539-3 0  3432",
      "2 66490  43.0003 146.4732 0001546 276.1157 157.6538 15.50624130    12"
    ]
  },
  "66491": {
    "noradId": "66491",
    "tle": [
      "1 66491C 25263G   25343.10673611 -.00041363  00000+0 -70276-3 0  3432",
      "2 66491  43.0004 146.3861 0001611 273.4036 237.9606 15.50616538    16"
    ]
  },
  "66492": {
    "noradId": "66492",
    "tle": [
      "1 66492C 25263H   25343.10465278 -.02277400  00000+0 -41467-1 0  3434",
      "2 66492  43.0004 146.3932 0001137 280.4015 221.1878 15.50907417    19"
    ]
  },
  "66493": {
    "noradId": "66493",
    "tle": [
      "1 66493C 25263J   25343.11229167 -.00034586  00000+0 -58760-3 0  3431",
      "2 66493  43.0004 146.3436 0001552 262.8976 283.3428 15.50610953    17"
    ]
  },
  "66494": {
    "noradId": "66494",
    "tle": [
      "1 66494C 25263K   25343.09076389 -.00020705  00000+0 -35177-3 0  3430",
      "2 66494  43.0003 146.4846 0001557 266.8305 153.3545 15.50597032    16"
    ]
  },
  "66495": {
    "noradId": "66495",
    "tle": [
      "1 66495C 25263L   25343.09354167 -.00013234  00000+0 -22484-3 0  3430",
      "2 66495  43.0003 146.4486 0001615 278.1091 165.2707 15.50589299    18"
    ]
  },
  "66496": {
    "noradId": "66496",
    "tle": [
      "1 66496C 25263M   25343.10743056 -.00023261  00000+0 -39516-3 0  3437",
      "2 66496  43.0004 146.3623 0001664 264.1103 258.7976 15.50601937    15"
    ]
  },
  "66497": {
    "noradId": "66497",
    "tle": [
      "1 66497C 25263N   25343.08798611 -.00015748  00000+0 -26754-3 0  3433",
      "2 66497  43.0004 146.4710 0001732 275.1182 141.0428 15.50592992    15"
    ]
  },
  "66498": {
    "noradId": "66498",
    "tle": [
      "1 66498C 25263P   25343.10465278 -.02245900  00000+0 -40394-1 0  3438",
      "2 66498  43.0004 146.3683 0000632 255.2932 255.8078 15.51224782    19"
    ]
  },
  "66499": {
    "noradId": "66499",
    "tle": [
      "1 66499C 25263Q   25343.10673611 -.00025166  00000+0 -42752-3 0  3431",
      "2 66499  43.0004 146.3470 0001488 266.0374 260.6546 15.50603688    13"
    ]
  },
  "66500": {
    "noradId": "66500",
    "tle": [
      "1 66500C 25263R   25343.09354167 -.00992840  00000+0 -17078-1 0  3437",
      "2 66500  43.0003 146.5395 0001289 277.3955 128.5687 15.51217915    15"
    ]
  },
  "66501": {
    "noradId": "66501",
    "tle": [
      "1 66501C 25263S   25343.09076389 -.00022561  00000+0 -38328-3 0  3432",
      "2 66501  43.0004 146.4357 0001659 279.8602 159.4893 15.50600345    15"
    ]
  },
  "66502": {
    "noradId": "66502",
    "tle": [
      "1 66502C 25263T   25343.10881944 -.00019146  00000+0 -32526-3 0  3435",
      "2 66502  43.0004 146.3151 0001674 265.9762 280.0323 15.50596968    11"
    ]
  }
}